{"type": "FeatureCollection", "features": [ {"type": "Feature", "properties": {"norad_id": 34077, "name": "IRIDIUM 33 DEB", "group": "iridium-33-debris", "lat": 20.09583067026644, "lon": -125.20666568489163, "alt_km": 678.3700240917442, "timestamp": "2025-12-02T06:27:53.396682+00:00", "meta": {"OBJECT_NAME": "IRIDIUM 33 DEB", "OBJECT_ID": "1997-051CL", "EPOCH": "2025-12-01T18:50:15.130176", "MEAN_MOTION": 14.6453586, "ECCENTRICITY": 0.0011041, "INCLINATION": 86.3871, "RA_OF_ASC_NODE": 56.3311, "ARG_OF_PERICENTER": 73.7314, "MEAN_ANOMALY": 53.2582, "EPHEMERIS_TYPE": 0, "CLASSIFICATION_TYPE": "U", "NORAD_CAT_ID": 34077, "ELEMENT_SET_NO": 999, "REV_AT_EPOCH": 88172, "BSTAR": 0.001689, "MEAN_MOTION_DOT": 8.988e-05, "MEAN_MOTION_DDOT": 0}, "tle": {"line1": "1 34077U 97051CL  25335.78489734  .00008988  00000+0  16890-2 0  9999", "line2": "2 34077  86.3871  56.3311 0011041  73.7314  53.2582 14.64535860881720"}}, "geometry": {"type": "Point", "coordinates": [-125.20666568489163, 20.09583067026644]}}, {"type": "Feature", "properties": {"norad_id": 34079, "name": "IRIDIUM 33 DEB", "group": "iridium-33-debris", "lat": 8.766898367711935, "lon": -167.1366742658848, "alt_km": 624.6913777847467, "timestamp": "2025-12-02T06:27:53.396692+00:00", "meta": {"OBJECT_NAME": "IRIDIUM 33 DEB", "OBJECT_ID": "1997-051CN", "EPOCH": "2025-12-01T20:46:35.598720", "MEAN_MOTION": 14.83079582, "ECCENTRICITY": 0.0006838, "INCLINATION": 86.379, "RA_OF_ASC_NODE": 13.6062, "ARG_OF_PERICENTER": 40.6061, "MEAN_ANOMALY": 136.576, "EPHEMERIS_TYPE": 0, "CLASSIFICATION_TYPE": "U", "NORAD_CAT_ID": 34079, "ELEMENT_SET_NO": 999, "REV_AT_EPOCH": 88816, "BSTAR": 0.0015204, "MEAN_MOTION_DOT": 0.00012414, "MEAN_MOTION_DDOT": 0}, "tle": {"line1": "1 34079U 97051CN  25335.86568980  .00012414  00000+0  15204-2 0  9998", "line2": "2 34079  86.3790  13.6062 0006838  40.6061 136.5760 14.83079582888164"}}, "geometry": {"type": "Point", "coordinates": [-167.1366742658848, 8.766898367711935]}}, {"type": "Feature", "properties": {"norad_id": 34088, "name": "IRIDIUM 33 DEB", "group": "iridium-33-debris", "lat": -26.300540366013824, "lon": 33.74208554755458, "alt_km": 603.7017591178192, "timestamp": "2025-12-02T06:27:53.396703+00:00", "meta": {"OBJECT_NAME": "IRIDIUM 33 DEB", "OBJECT_ID": "1997-051CX", "EPOCH": "2025-12-01T16:38:18.786336", "MEAN_MOTION": 14.90512299, "ECCENTRICITY": 0.0005101, "INCLINATION": 86.3866, "RA_OF_ASC_NODE": 35.796, "ARG_OF_PERICENTER": 218.5802, "MEAN_ANOMALY": 265.9168, "EPHEMERIS_TYPE": 0, "CLASSIFICATION_TYPE": "U", "NORAD_CAT_ID": 34088, "ELEMENT_SET_NO": 999, "REV_AT_EPOCH": 88577, "BSTAR": 0.0025052, "MEAN_MOTION_DOT": 0.00024547, "MEAN_MOTION_DDOT": 0}, "tle": {"line1": "1 34088U 97051CX  25335.69327299  .00024547  00000+0  25052-2 0  9997", "line2": "2 34088  86.3866  35.7960 0005101 218.5802 265.9168 14.90512299885779"}}, "geometry": {"type": "Point", "coordinates": [33.74208554755458, -26.300540366013824]}}, {"type": "Feature", "properties": {"norad_id": 34091, "name": "IRIDIUM 33 DEB", "group": "iridium-33-debris", "lat": 11.960627243768139, "lon": -109.15309632049954, "alt_km": 651.224773935307, "timestamp": "2025-12-02T06:27:53.396713+00:00", "meta": {"OBJECT_NAME": "IRIDIUM 33 DEB", "OBJECT_ID": "1997-051DA", "EPOCH": "2025-12-01T18:21:08.453088", "MEAN_MOTION": 14.80452888, "ECCENTRICITY": 0.0032842, "INCLINATION": 86.342, "RA_OF_ASC_NODE": 71.854, "ARG_OF_PERICENTER": 332.8724, "MEAN_ANOMALY": 27.078, "EPHEMERIS_TYPE": 0, "CLASSIFICATION_TYPE": "U", "NORAD_CAT_ID": 34091, "ELEMENT_SET_NO": 999, "REV_AT_EPOCH": 87704, "BSTAR": 0.0048913, "MEAN_MOTION_DOT": 0.0003792, "MEAN_MOTION_DDOT": 0}, "tle": {"line1": "1 34091U 97051DA  25335.76468117  .00037920  00000+0  48913-2 0  9994", "line2": "2 34091  86.3420  71.8540 0032842 332.8724  27.0780 14.80452888877043"}}, "geometry": {"type": "Point", "coordinates": [-109.15309632049954, 11.960627243768139]}}, {"type": "Feature", "properties": {"norad_id": 34097, "name": "IRIDIUM 33 DEB", "group": "iridium-33-debris", "lat": 4.705221450179722, "lon": 6.342505651499436, "alt_km": 727.2224936301109, "timestamp": "2025-12-02T06:27:53.396723+00:00", "meta": {"OBJECT_NAME": "IRIDIUM 33 DEB", "OBJECT_ID": "1997-051DG", "EPOCH": "2025-12-01T12:01:47.968896", "MEAN_MOTION": 14.34641862, "ECCENTRICITY": 0.0083867, "INCLINATION": 86.2013, "RA_OF_ASC_NODE": 6.3679, "ARG_OF_PERICENTER": 38.6075, "MEAN_ANOMALY": 322.1076, "EPHEMERIS_TYPE": 0, "CLASSIFICATION_TYPE": "U", "NORAD_CAT_ID": 34097, "ELEMENT_SET_NO": 999, "REV_AT_EPOCH": 86958, "BSTAR": 0.0014483124, "MEAN_MOTION_DOT": 4.279e-05, "MEAN_MOTION_DDOT": 0}, "tle": {"line1": "1 34097U 97051DG  25335.50124964  .00004279  00000+0  14483-2 0  9997", "line2": "2 34097  86.2013   6.3679 0083867  38.6075 322.1076 14.34641862869583"}}, "geometry": {"type": "Point", "coordinates": [6.342505651499436, 4.705221450179722]}}, {"type": "Feature", "properties": {"norad_id": 34145, "name": "IRIDIUM 33 DEB", "group": "iridium-33-debris", "lat": -8.892985947640225, "lon": -23.403311606209403, "alt_km": 783.5853706580438, "timestamp": "2025-12-02T06:27:53.396733+00:00", "meta": {"OBJECT_NAME": "IRIDIUM 33 DEB", "OBJECT_ID": "1997-051DY", "EPOCH": "2025-12-01T10:31:25.129056", "MEAN_MOTION": 14.42165387, "ECCENTRICITY": 0.00551446, "INCLINATION": 86.2119, "RA_OF_ASC_NODE": 337.5605, "ARG_OF_PERICENTER": 129.8004, "MEAN_ANOMALY": 230.807, "EPHEMERIS_TYPE": 0, "CLASSIFICATION_TYPE": "U", "NORAD_CAT_ID": 34145, "ELEMENT_SET_NO": 999, "REV_AT_EPOCH": 87475, "BSTAR": 0.0011229565, "MEAN_MOTION_DOT": 3.783e-05, "MEAN_MOTION_DDOT": 0}, "tle": {"line1": "1 34145U 97051DY  25335.43848529  .00003783  00000+0  11230-2 0  9999", "line2": "2 34145  86.2119 337.5605 0055144 129.8004 230.8070 14.42165387874750"}}, "geometry": {"type": "Point", "coordinates": [-23.403311606209403, -8.892985947640225]}}, {"type": "Feature", "properties": {"norad_id": 34146, "name": "IRIDIUM 33 DEB", "group": "iridium-33-debris", "lat": 83.90792608851568, "lon": 136.9158728857675, "alt_km": 738.8202835727916, "timestamp": "2025-12-02T06:27:53.396744+00:00", "meta": {"OBJECT_NAME": "IRIDIUM 33 DEB", "OBJECT_ID": "1997-051DZ", "EPOCH": "2025-12-01T12:29:48.186240", "MEAN_MOTION": 14.48922256, "ECCENTRICITY": 0.00249505, "INCLINATION": 86.2841, "RA_OF_ASC_NODE": 354.7569, "ARG_OF_PERICENTER": 261.9495, "MEAN_ANOMALY": 250.2765, "EPHEMERIS_TYPE": 0, "CLASSIFICATION_TYPE": "U", "NORAD_CAT_ID": 34146, "ELEMENT_SET_NO": 999, "REV_AT_EPOCH": 87944, "BSTAR": 0.0011238523, "MEAN_MOTION_DOT": 4.289e-05, "MEAN_MOTION_DDOT": 0}, "tle": {"line1": "1 34146U 97051DZ  25335.52069660  .00004289  00000+0  11239-2 0  9992", "line2": "2 34146  86.2841 354.7569 0024950 261.9495 250.2765 14.48922256879446"}}, "geometry": {"type": "Point", "coordinates": [136.9158728857675, 83.90792608851568]}}, {"type": "Feature", "properties": {"norad_id": 34159, "name": "IRIDIUM 33 DEB", "group": "iridium-33-debris", "lat": -25.408942696452964, "lon": -125.55828835535375, "alt_km": 778.5706511528906, "timestamp": "2025-12-02T06:27:53.396754+00:00", "meta": {"OBJECT_NAME": "IRIDIUM 33 DEB", "OBJECT_ID": "1997-051EN", "EPOCH": "2025-12-01T14:29:07.196928", "MEAN_MOTION": 14.38447041, "ECCENTRICITY": 0.00266116, "INCLINATION": 86.3516, "RA_OF_ASC_NODE": 52.9886, "ARG_OF_PERICENTER": 326.7615, "MEAN_ANOMALY": 33.191, "EPHEMERIS_TYPE": 0, "CLASSIFICATION_TYPE": "U", "NORAD_CAT_ID": 34159, "ELEMENT_SET_NO": 999, "REV_AT_EPOCH": 87799, "BSTAR": 0.00044184185, "MEAN_MOTION_DOT": 1.372e-05, "MEAN_MOTION_DDOT": 0}, "tle": {"line1": "1 34159U 97051EN  25335.60355552  .00001372  00000+0  44184-3 0  9999", "line2": "2 34159  86.3516  52.9886 0026611 326.7615  33.1910 14.38447041877990"}}, "geometry": {"type": "Point", "coordinates": [-125.55828835535375, -25.408942696452964]}}, {"type": "Feature", "properties": {"norad_id": 34350, "name": "IRIDIUM 33 DEB", "group": "iridium-33-debris", "lat": -25.127433694864273, "lon": 5.624749326063361, "alt_km": 761.5818476219538, "timestamp": "2025-12-02T06:27:53.396764+00:00", "meta": {"OBJECT_NAME": "IRIDIUM 33 DEB", "OBJECT_ID": "1997-051ES", "EPOCH": "2025-12-01T14:32:17.689056", "MEAN_MOTION": 14.45345395, "ECCENTRICITY": 0.00216675, "INCLINATION": 86.3284, "RA_OF_ASC_NODE": 7.6383, "ARG_OF_PERICENTER": 170.4915, "MEAN_ANOMALY": 313.6705, "EPHEMERIS_TYPE": 0, "CLASSIFICATION_TYPE": "U", "NORAD_CAT_ID": 34350, "ELEMENT_SET_NO": 999, "REV_AT_EPOCH": 88132, "BSTAR": 0.00033636786, "MEAN_MOTION_DOT": 1.205e-05, "MEAN_MOTION_DDOT": 0}, "tle": {"line1": "1 34350U 97051ES  25335.60576029  .00001205  00000+0  33637-3 0  9992", "line2": "2 34350  86.3284   7.6383 0021667 170.4915 313.6705 14.45345395881324"}}, "geometry": {"type": "Point", "coordinates": [5.624749326063361, -25.127433694864273]}}, {"type": "Feature", "properties": {"norad_id": 34366, "name": "IRIDIUM 33 DEB", "group": "iridium-33-debris", "lat": -21.36547188151833, "lon": 52.442910614700374, "alt_km": 733.1653056782443, "timestamp": "2025-12-02T06:27:53.396774+00:00", "meta": {"OBJECT_NAME": "IRIDIUM 33 DEB", "OBJECT_ID": "1997-051FJ", "EPOCH": "2025-12-01T17:56:27.538080", "MEAN_MOTION": 14.53886332, "ECCENTRICITY": 0.0021585, "INCLINATION": 86.3708, "RA_OF_ASC_NODE": 54.0924, "ARG_OF_PERICENTER": 175.1506, "MEAN_ANOMALY": 314.0066, "EPHEMERIS_TYPE": 0, "CLASSIFICATION_TYPE": "U", "NORAD_CAT_ID": 34366, "ELEMENT_SET_NO": 999, "REV_AT_EPOCH": 88022, "BSTAR": 0.0012466, "MEAN_MOTION_DOT": 5.277e-05, "MEAN_MOTION_DDOT": 0}, "tle": {"line1": "1 34366U 97051FJ  25335.74754095  .00005277  00000+0  12466-2 0  9994", "line2": "2 34366  86.3708  54.0924 0021585 175.1506 314.0066 14.53886332880229"}}, "geometry": {"type": "Point", "coordinates": [52.442910614700374, -21.36547188151833]}}]}